[Satellite]
VERSION=1.1
NAME=NSS-5
NICKNAME=NSS-5
TLE1=1 24957U 97053A   17186.19403819  .00000101  00000-0  00000-0 0  9991
TLE2=2 24957   3.8735  69.2331 0003795  22.8144 311.6688  1.00270965 72455
